0 BREEZE-M DEB (TANK)
1 28116U 03056E   13282.86326183  .00004509  00000-0  10015-2 0  8609
2 28116 052.8458 192.1724 5805907 064.3235 010.9869 04.32421387154350
0 BREEZE-M DEB (TANK)
1 28116U 03056E   13283.78616844  .00004702  00000-0  10422-2 0  8615
2 28116 052.8456 191.6559 5806009 064.6717 007.6917 04.32431388154393
0 BREEZE-M DEB (TANK)
1 28116U 03056E   13286.79274483  .00005275  00000-0  11784-2 0  8638
2 28116 052.8452 189.9727 5806219 065.8098 008.3219 04.32455924154524
0 BREEZE-M DEB (TANK)
1 28116U 03056E   13288.87483223  .00005367  00000-0  11996-2 0  8641
2 28116 052.8451 188.8073 5806330 066.5991 009.8778 04.32485223154610
0 BREEZE-M DEB (TANK)
1 28116U 03056E   13289.79853919  .00005482  00000-0  12217-2 0  8652
2 28116 052.8450 188.2901 5806418 066.9458 008.0536 04.32493275154655
0 BREEZE-M DEB (TANK)
1 28116U 03056E   13292.12196785  .00005567  00000-0  12259-2 0  8665
2 28116 052.8447 186.9892 5806550 067.8276 025.6690 04.32519755154759
0 BREEZE-M DEB (TANK)
1 28116U 03056E   13294.19353839  .00005658  00000-0  12272-2 0  8676
2 28116 052.8445 185.8281 5806711 068.6145 011.3138 04.32548717154849
0 BREEZE-M DEB (TANK)
1 28116U 03056E   13295.12445105  .00006040  00000-0  13043-2 0  8682
2 28116 052.8446 185.3068 5806762 068.9664 020.9082 04.32558890154884
